CCSDS_OMM_VERS = 2.0
CREATION_DATE  = 
ORIGINATOR     = 

OBJECT_NAME    = STARLINK-36577
OBJECT_ID      = 2026-016Y
CENTER_NAME    = EARTH
REF_FRAME      = TEME
TIME_SYSTEM    = UTC
MEAN_ELEMENT_THEORY = SGP/SGP4

EPOCH          = 2026-02-16T14:08:45.744576
MEAN_MOTION    = 15.80917243
ECCENTRICITY   = .00015813
INCLINATION    = 97.2848
RA_OF_ASC_NODE = 107.0615
ARG_OF_PERICENTER = 65.5553
MEAN_ANOMALY   = 294.5880

EPHEMERIS_TYPE = 0
CLASSIFICATION_TYPE = U
NORAD_CAT_ID   = 67583
ELEMENT_SET_NO = 999
REV_AT_EPOCH   = 348
BSTAR          = .14414607E-2
MEAN_MOTION_DOT = .286551E-2
MEAN_MOTION_DDOT = 0

CCSDS_OMM_VERS = 2.0
CREATION_DATE  = 
ORIGINATOR     = 

OBJECT_NAME    = STARLINK-36419
OBJECT_ID      = 2026-016Z
CENTER_NAME    = EARTH
REF_FRAME      = TEME
TIME_SYSTEM    = UTC
MEAN_ELEMENT_THEORY = SGP/SGP4

EPOCH          = 2026-02-16T14:03:04.141440
MEAN_MOTION    = 15.80492441
ECCENTRICITY   = .00014197
INCLINATION    = 97.2841
RA_OF_ASC_NODE = 107.0676
ARG_OF_PERICENTER = 71.0301
MEAN_ANOMALY   = 289.1121

EPHEMERIS_TYPE = 0
CLASSIFICATION_TYPE = U
NORAD_CAT_ID   = 67584
ELEMENT_SET_NO = 999
REV_AT_EPOCH   = 348
BSTAR          = -.16199309E-2
MEAN_MOTION_DOT = -.295765E-2
MEAN_MOTION_DDOT = 0

CCSDS_OMM_VERS = 2.0
CREATION_DATE  = 
ORIGINATOR     = 

OBJECT_NAME    = STARLINK-36560
OBJECT_ID      = 2026-016AA
CENTER_NAME    = EARTH
REF_FRAME      = TEME
TIME_SYSTEM    = UTC
MEAN_ELEMENT_THEORY = SGP/SGP4

EPOCH          = 2026-02-16T14:00:31.508928
MEAN_MOTION    = 15.80935833
ECCENTRICITY   = .00008986
INCLINATION    = 97.2843
RA_OF_ASC_NODE = 107.0697
ARG_OF_PERICENTER = 52.7336
MEAN_ANOMALY   = 307.4014

EPHEMERIS_TYPE = 0
CLASSIFICATION_TYPE = U
NORAD_CAT_ID   = 67585
ELEMENT_SET_NO = 999
REV_AT_EPOCH   = 348
BSTAR          = .15243973E-2
MEAN_MOTION_DOT = .30392E-2
MEAN_MOTION_DDOT = 0

CCSDS_OMM_VERS = 2.0
CREATION_DATE  = 
ORIGINATOR     = 

OBJECT_NAME    = NAVSTAR 85 (USA 581)
OBJECT_ID      = 2026-017A
CENTER_NAME    = EARTH
REF_FRAME      = TEME
TIME_SYSTEM    = UTC
MEAN_ELEMENT_THEORY = SGP/SGP4

EPOCH          = 2026-02-15T13:04:50.078784
MEAN_MOTION    = 2.00561312
ECCENTRICITY   = .00009027
INCLINATION    = 55.0067
RA_OF_ASC_NODE = 93.6366
ARG_OF_PERICENTER = 51.2369
MEAN_ANOMALY   = 308.8521

EPHEMERIS_TYPE = 0
CLASSIFICATION_TYPE = U
NORAD_CAT_ID   = 67588
ELEMENT_SET_NO = 999
REV_AT_EPOCH   = 42917
BSTAR          = 0
MEAN_MOTION_DOT = .17E-6
MEAN_MOTION_DDOT = 0

CCSDS_OMM_VERS = 2.0
CREATION_DATE  = 
ORIGINATOR     = 

OBJECT_NAME    = STARLINK-36641
OBJECT_ID      = 2026-018A
CENTER_NAME    = EARTH
REF_FRAME      = TEME
TIME_SYSTEM    = UTC
MEAN_ELEMENT_THEORY = SGP/SGP4

EPOCH          = 2026-02-16T14:00:01.999872
MEAN_MOTION    = 15.75059856
ECCENTRICITY   = .00015575
INCLINATION    = 97.2846
RA_OF_ASC_NODE = 112.3021
ARG_OF_PERICENTER = 88.0430
MEAN_ANOMALY   = 217.8927

EPHEMERIS_TYPE = 0
CLASSIFICATION_TYPE = U
NORAD_CAT_ID   = 67589
ELEMENT_SET_NO = 999
REV_AT_EPOCH   = 395
BSTAR          = .11999621E-2
MEAN_MOTION_DOT = .181688E-2
MEAN_MOTION_DDOT = 0

CCSDS_OMM_VERS = 2.0
CREATION_DATE  = 
ORIGINATOR     = 

OBJECT_NAME    = STARLINK-36376
OBJECT_ID      = 2026-018B
CENTER_NAME    = EARTH
REF_FRAME      = TEME
TIME_SYSTEM    = UTC
MEAN_ELEMENT_THEORY = SGP/SGP4

EPOCH          = 2026-02-16T13:54:22.953312
MEAN_MOTION    = 15.80953549
ECCENTRICITY   = .00006811
INCLINATION    = 97.2827
RA_OF_ASC_NODE = 112.3304
ARG_OF_PERICENTER = 52.1878
MEAN_ANOMALY   = 307.9452

EPHEMERIS_TYPE = 0
CLASSIFICATION_TYPE = U
NORAD_CAT_ID   = 67590
ELEMENT_SET_NO = 999
REV_AT_EPOCH   = 398
BSTAR          = .17112058E-2
MEAN_MOTION_DOT = .343018E-2
MEAN_MOTION_DDOT = 0

CCSDS_OMM_VERS = 2.0
CREATION_DATE  = 
ORIGINATOR     = 

OBJECT_NAME    = STARLINK-36391
OBJECT_ID      = 2026-018C
CENTER_NAME    = EARTH
REF_FRAME      = TEME
TIME_SYSTEM    = UTC
MEAN_ELEMENT_THEORY = SGP/SGP4

EPOCH          = 2026-02-16T13:52:48.402336
MEAN_MOTION    = 15.80940455
ECCENTRICITY   = .00007165
INCLINATION    = 97.2830
RA_OF_ASC_NODE = 112.3321
ARG_OF_PERICENTER = 20.3451
MEAN_ANOMALY   = 339.7846

EPHEMERIS_TYPE = 0
CLASSIFICATION_TYPE = U
NORAD_CAT_ID   = 67591
ELEMENT_SET_NO = 999
REV_AT_EPOCH   = 398
BSTAR          = .14394296E-2
MEAN_MOTION_DOT = .286454E-2
MEAN_MOTION_DDOT = 0

CCSDS_OMM_VERS = 2.0
CREATION_DATE  = 
ORIGINATOR     = 

OBJECT_NAME    = STARLINK-36603
OBJECT_ID      = 2026-018D
CENTER_NAME    = EARTH
REF_FRAME      = TEME
TIME_SYSTEM    = UTC
MEAN_ELEMENT_THEORY = SGP/SGP4

EPOCH          = 2026-02-16T13:51:44.319456
MEAN_MOTION    = 15.80948369
ECCENTRICITY   = .00012666
INCLINATION    = 97.2832
RA_OF_ASC_NODE = 112.3331
ARG_OF_PERICENTER = 11.3449
MEAN_ANOMALY   = 348.7847

EPHEMERIS_TYPE = 0
CLASSIFICATION_TYPE = U
NORAD_CAT_ID   = 67592
ELEMENT_SET_NO = 999
REV_AT_EPOCH   = 398
BSTAR          = .16117347E-2
MEAN_MOTION_DOT = .322203E-2
MEAN_MOTION_DDOT = 0

CCSDS_OMM_VERS = 2.0
CREATION_DATE  = 
ORIGINATOR     = 

OBJECT_NAME    = STARLINK-36634
OBJECT_ID      = 2026-018E
CENTER_NAME    = EARTH
REF_FRAME      = TEME
TIME_SYSTEM    = UTC
MEAN_ELEMENT_THEORY = SGP/SGP4

EPOCH          = 2026-02-16T13:50:04.834176
MEAN_MOTION    = 15.80946246
ECCENTRICITY   = .00010965
INCLINATION    = 97.2830
RA_OF_ASC_NODE = 112.3342
ARG_OF_PERICENTER = 2.4553
MEAN_ANOMALY   = 357.6720

EPHEMERIS_TYPE = 0
CLASSIFICATION_TYPE = U
NORAD_CAT_ID   = 67593
ELEMENT_SET_NO = 999
REV_AT_EPOCH   = 398
BSTAR          = .16594482E-2
MEAN_MOTION_DOT = .332097E-2
MEAN_MOTION_DDOT = 0

CCSDS_OMM_VERS = 2.0
CREATION_DATE  = 
ORIGINATOR     = 

OBJECT_NAME    = STARLINK-36638
OBJECT_ID      = 2026-018F
CENTER_NAME    = EARTH
REF_FRAME      = TEME
TIME_SYSTEM    = UTC
MEAN_ELEMENT_THEORY = SGP/SGP4

EPOCH          = 2026-02-16T13:48:28.846368
MEAN_MOTION    = 15.80959902
ECCENTRICITY   = .00009312
INCLINATION    = 97.2828
RA_OF_ASC_NODE = 112.3357
ARG_OF_PERICENTER = 1.4438
MEAN_ANOMALY   = 358.6833

EPHEMERIS_TYPE = 0
CLASSIFICATION_TYPE = U
NORAD_CAT_ID   = 67594
ELEMENT_SET_NO = 999
REV_AT_EPOCH   = 398
BSTAR          = .16924268E-2
MEAN_MOTION_DOT = .339194E-2
MEAN_MOTION_DDOT = 0

CCSDS_OMM_VERS = 2.0
CREATION_DATE  = 
ORIGINATOR     = 

OBJECT_NAME    = STARLINK-36628
OBJECT_ID      = 2026-018G
CENTER_NAME    = EARTH
REF_FRAME      = TEME
TIME_SYSTEM    = UTC
MEAN_ELEMENT_THEORY = SGP/SGP4

EPOCH          = 2026-02-16T14:00:01.999872
MEAN_MOTION    = 15.75111654
ECCENTRICITY   = .00009063
INCLINATION    = 97.2841
RA_OF_ASC_NODE = 112.3318
ARG_OF_PERICENTER = 88.4925
MEAN_ANOMALY   = 287.4670

EPHEMERIS_TYPE = 0
CLASSIFICATION_TYPE = U
NORAD_CAT_ID   = 67595
ELEMENT_SET_NO = 999
REV_AT_EPOCH   = 395
BSTAR          = .13044067E-2
MEAN_MOTION_DOT = .198344E-2
MEAN_MOTION_DDOT = 0

CCSDS_OMM_VERS = 2.0
CREATION_DATE  = 
ORIGINATOR     = 

OBJECT_NAME    = STARLINK-36629
OBJECT_ID      = 2026-018H
CENTER_NAME    = EARTH
REF_FRAME      = TEME
TIME_SYSTEM    = UTC
MEAN_ELEMENT_THEORY = SGP/SGP4

EPOCH          = 2026-02-16T12:35:42.878112
MEAN_MOTION    = 15.75252522
ECCENTRICITY   = .00008845
INCLINATION    = 97.2834
RA_OF_ASC_NODE = 112.2502
ARG_OF_PERICENTER = 87.4006
MEAN_ANOMALY   = 272.7360

EPHEMERIS_TYPE = 0
CLASSIFICATION_TYPE = U
NORAD_CAT_ID   = 67596
ELEMENT_SET_NO = 999
REV_AT_EPOCH   = 397
BSTAR          = .12358253E-2
MEAN_MOTION_DOT = .188844E-2
MEAN_MOTION_DDOT = 0

CCSDS_OMM_VERS = 2.0
CREATION_DATE  = 
ORIGINATOR     = 

OBJECT_NAME    = STARLINK-36384
OBJECT_ID      = 2026-018J
CENTER_NAME    = EARTH
REF_FRAME      = TEME
TIME_SYSTEM    = UTC
MEAN_ELEMENT_THEORY = SGP/SGP4

EPOCH          = 2026-02-16T13:44:14.162496
MEAN_MOTION    = 15.80934571
ECCENTRICITY   = .0000427
INCLINATION    = 97.2832
RA_OF_ASC_NODE = 112.3389
ARG_OF_PERICENTER = 90.5352
MEAN_ANOMALY   = 269.5965

EPHEMERIS_TYPE = 0
CLASSIFICATION_TYPE = U
NORAD_CAT_ID   = 67597
ELEMENT_SET_NO = 999
REV_AT_EPOCH   = 398
BSTAR          = .1370455E-2
MEAN_MOTION_DOT = .272201E-2
MEAN_MOTION_DDOT = 0

CCSDS_OMM_VERS = 2.0
CREATION_DATE  = 
ORIGINATOR     = 

OBJECT_NAME    = STARLINK-36358
OBJECT_ID      = 2026-018K
CENTER_NAME    = EARTH
REF_FRAME      = TEME
TIME_SYSTEM    = UTC
MEAN_ELEMENT_THEORY = SGP/SGP4

EPOCH          = 2026-02-16T14:00:01.999872
MEAN_MOTION    = 15.75134052
ECCENTRICITY   = .00014993
INCLINATION    = 97.2846
RA_OF_ASC_NODE = 112.3274
ARG_OF_PERICENTER = 75.5173
MEAN_ANOMALY   = 290.4402

EPHEMERIS_TYPE = 0
CLASSIFICATION_TYPE = U
NORAD_CAT_ID   = 67598
ELEMENT_SET_NO = 999
REV_AT_EPOCH   = 400
BSTAR          = .9510598E-3
MEAN_MOTION_DOT = .143792E-2
MEAN_MOTION_DDOT = 0

CCSDS_OMM_VERS = 2.0
CREATION_DATE  = 
ORIGINATOR     = 

OBJECT_NAME    = STARLINK-36582
OBJECT_ID      = 2026-018L
CENTER_NAME    = EARTH
REF_FRAME      = TEME
TIME_SYSTEM    = UTC
MEAN_ELEMENT_THEORY = SGP/SGP4

EPOCH          = 2026-02-16T13:41:25.741248
MEAN_MOTION    = 15.80954317
ECCENTRICITY   = .00013
INCLINATION    = 97.2830
RA_OF_ASC_NODE = 112.3416
ARG_OF_PERICENTER = 8.3445
MEAN_ANOMALY   = 351.7845

EPHEMERIS_TYPE = 0
CLASSIFICATION_TYPE = U
NORAD_CAT_ID   = 67599
ELEMENT_SET_NO = 999
REV_AT_EPOCH   = 403
BSTAR          = .16479001E-2
MEAN_MOTION_DOT = .329817E-2
MEAN_MOTION_DDOT = 0

